FLOCK 4G-23             
1 62647U 25009AQ  26068.71663397  .00012440  00000+0  46816-3 0  9993
2 62647  97.3979 150.9478 0000905   7.2707 352.8545 15.27262579 63728
STARLINK-36095          
1 66871U 25281Z   26068.22834174  .00046695  00000+0  16952-2 0  9993
2 66871  43.0043 346.1916 0002338 259.0875 100.9714 15.27588294 16095
